OBJECT_NAME,OBJECT_ID,EPOCH,MEAN_MOTION,ECCENTRICITY,INCLINATION,RA_OF_ASC_NODE,ARG_OF_PERICENTER,MEAN_ANOMALY,EPHEMERIS_TYPE,CLASSIFICATION_TYPE,NORAD_CAT_ID,ELEMENT_SET_NO,REV_AT_EPOCH,BSTAR,MEAN_MOTION_DOT,MEAN_MOTION_DDOT
ARIANE 40+ R/B,1995-021B,2026-07-07T18:32:20.741856,14.39844886,.0007662,98.4403,258.5493,135.5206,334.1809,0,U,23561,999,63652,.77091E-4,.199E-5,0
SL-16 R/B,1995-058B,2026-07-07T16:43:07.134240,14.15508705,.0014628,71.0220,288.2983,292.6157,67.3418,0,U,23705,999,58483,-.87599E-4,-.219E-5,0
SL-16 R/B,1996-051B,2026-07-07T17:03:19.011744,14.12453530,.0017182,70.7652,281.2154,307.9614,51.9952,0,U,24298,999,53859,.993E-4,.134E-5,0
ORBVIEW 2 (SEASTAR),1997-037A,2026-07-06T22:53:35.301120,14.35563934,.00032845,98.8707,355.5224,77.0577,283.0974,0,U,24883,999,52558,.87562803E-4,.205E-5,0
SL-16 R/B,1998-043G,2026-07-07T18:43:26.591232,14.26071934,.0010425,98.8374,143.1176,32.0191,328.1620,0,U,25400,999,45610,.30774E-4,.28E-6,0
SL-16 R/B,1998-045B,2026-07-07T17:15:47.920896,14.16207697,.0008544,71.0124,289.1500,216.7692,143.2846,0,U,25407,999,44409,-.36805E-4,-.121E-5,0
ISS (ZARYA),1998-067A,2026-07-07T12:12:01.987776,15.48933372,.00066874,51.6304,199.5144,267.6545,92.3678,0,U,25544,999,57490,.11369272E-3,.5806E-4,0
CZ-4B R/B,1999-025C,2026-07-07T17:56:20.899104,14.18286844,.0037075,98.6473,230.0675,1.3503,108.4620,0,U,25732,999,40518,.34564E-4,.29E-6,0
OKEAN-O,1999-039A,2026-07-07T18:12:37.942272,14.80491723,.0001036,97.9305,247.3195,75.4426,284.6901,0,U,25860,999,45215,.68129E-4,.469E-5,0
SL-16 R/B,1999-039B,2026-07-07T18:16:29.396640,14.81865792,.00138,97.9826,247.5648,223.7462,136.2659,0,U,25861,999,45464,.55814E-4,.388E-5,0
DELTA 2 R/B,1999-041E,2026-07-06T23:51:40.304736,14.12061027,.05012025,51.7610,184.6656,340.5445,17.6943,0,U,25876,999,37988,.23260822E-3,.1209E-4,0
HELIOS 1B,1999-064A,2026-07-07T18:07:31.451232,14.88062439,.0002259,98.1595,94.4889,63.0622,297.0824,0,U,25977,999,70311,.13889E-3,.1218E-4,0
TERRA,1999-068A,2026-07-07T18:41:11.126400,14.61119717,.0003059,97.9444,237.5073,137.6111,341.4830,0,U,25994,999,41261,.71539E-4,.307E-5,0
SL-16 R/B,2000-006B,2026-07-07T01:25:23.830176,14.15840447,.00168341,71.0005,206.8406,351.6066,8.4772,0,U,26070,999,36545,-.79333613E-4,-.204E-5,0
TITAN 4B R/B,2000-047B,2026-07-07T18:56:57.854400,15.10310374,.0046026,67.9887,62.5777,266.0848,93.5039,0,U,26474,999,41104,.11782E-3,.1841E-4,0
ENVISAT,2002-009A,2026-07-07T19:53:03.060096,14.39069661,.0001357,98.3843,139.6876,84.1610,329.5017,0,U,27386,999,27645,.3538E-4,.66E-6,0
IDEFIX & ARIANE 42P R/B,2002-021B,2026-07-07T18:07:18.746112,14.31091542,.0011421,98.5942,126.0156,188.4015,171.6979,0,U,27422,999,26119,.7661E-4,.158E-5,0
AQUA,2002-022A,2026-07-07T20:33:12.763008,14.62189857,.000073,98.4289,158.5539,97.9676,317.7927,0,U,27424,999,28629,.13641E-3,.637E-5,0
CZ-4B R/B,2002-024C,2026-07-07T18:18:15.295392,14.14567554,.0050834,98.8689,241.4481,42.8954,68.6613,0,U,27432,999,24621,.29876E-4,.14E-6,0
MIDORI II (ADEOS-II),2002-056A,2026-07-07T18:55:22.556928,14.29360532,.0001777,98.7889,148.2245,49.7772,310.3565,0,U,27597,999,22745,.93848E-4,.194E-5,0
H-2A R/B,2002-056E,2026-07-07T17:43:05.808288,14.33831205,.0070419,98.3323,144.6648,162.9769,261.6247,0,U,27601,999,23131,.77104E-4,.179E-5,0
CZ-4B R/B,2003-049C,2026-07-07T17:20:49.769664,14.55112800,.0047238,98.6905,188.3876,224.3859,135.3547,0,U,28059,999,20405,.59047E-4,.207E-5,0
CZ-2C R/B,2004-012C,2026-07-07T17:29:56.524416,15.83611482,.0011047,97.7054,266.8508,214.7017,145.3532,0,U,28222,999,22314,.44343E-3,.98038E-3,0
SL-16 R/B,2004-021B,2026-07-07T17:43:25.036608,14.14614036,.0006505,71.0021,340.5571,231.4528,128.6012,0,U,28353,999,13981,.16285E-3,.265E-5,0
CZ-4B R/B,2004-035C,2026-07-07T01:41:03.353280,15.30915636,.00288594,97.3361,220.9219,263.1254,96.6704,0,U,28415,999,19816,.17716977E-3,.528E-4,0
CZ-2C R/B,2004-046B,2026-07-07T17:39:34.907616,14.27031625,.0139702,98.1927,96.2307,159.3593,201.3310,0,U,28480,999,12562,.46394E-4,.85E-6,0
ARIANE 5 R/B,2004-049H,2026-07-07T11:20:47.388480,14.85472992,.00830333,98.2736,1.5113,323.6113,35.9473,0,U,28499,999,16357,.57764729E-4,.464E-5,0
CZ-2D R/B,2005-024B,2026-07-07T00:47:35.720448,15.71950618,.00009912,97.3477,208.4827,228.1817,131.9362,0,U,28738,999,15845,.39702075E-3,.5177E-3,0
ALOS (DAICHI),2006-002A,2026-07-07T18:46:23.321568,14.70092413,.0000785,98.1332,144.2868,77.1305,282.9988,0,U,28931,999,9112,.15573E-3,.886E-5,0
H-2A R/B,2006-002B,2026-07-07T10:05:25.562400,15.18361756,.00502683,98.2587,346.0860,192.4480,167.5515,0,U,28932,999,11259,.26592532E-3,.5562E-4,0
