ARIANE 40+ R/B          
1 23561U 95021B   26188.77246229  .00000199  00000+0  77091-4 0  9994
2 23561  98.4403 258.5493 0007662 135.5206 334.1809 14.39844886636521
SL-16 R/B               
1 23705U 95058B   26188.69661035 -.00000219  00000+0 -87599-4 0  9990
2 23705  71.0220 288.2983 0014628 292.6157  67.3418 14.15508705584837
SL-16 R/B               
1 24298U 96051B   26188.71063671  .00000134  00000+0  99300-4 0  9994
2 24298  70.7652 281.2154 0017182 307.9614  51.9952 14.12453530538595
ORBVIEW 2 (SEASTAR)     
1 24883U 97037A   26187.95388080  .00000205  00000+0  87563-4 0  9995
2 24883  98.8707 355.5224 0003284  77.0577 283.0974 14.35563934525583
SL-16 R/B               
1 25400U 98043G   26188.78016888  .00000028  00000+0  30774-4 0  9990
2 25400  98.8374 143.1176 0010425  32.0191 328.1620 14.26071934456108
SL-16 R/B               
1 25407U 98045B   26188.71930464 -.00000121  00000+0 -36805-4 0  9994
2 25407  71.0124 289.1500 0008544 216.7692 143.2846 14.16207697444096
ISS (ZARYA)             
1 25544U 98067A   26188.50835634  .00005806  00000+0  11369-3 0  9990
2 25544  51.6304 199.5144 0006687 267.6545  92.3678 15.48933372574901
CZ-4B R/B               
1 25732U 99025C   26188.74746411  .00000029  00000+0  34564-4 0  9999
2 25732  98.6473 230.0675 0037075   1.3503 108.4620 14.18286844405180
OKEAN-O                 
1 25860U 99039A   26188.75877248  .00000469  00000+0  68129-4 0  9992
2 25860  97.9305 247.3195 0001036  75.4426 284.6901 14.80491723452151
SL-16 R/B               
1 25861U 99039B   26188.76145135  .00000388  00000+0  55814-4 0  9994
2 25861  97.9826 247.5648 0013800 223.7462 136.2659 14.81865792454645
DELTA 2 R/B             
1 25876U 99041E   26187.99421649  .00001209  00000+0  23261-3 0  9997
2 25876  51.7610 184.6656 0501202 340.5445  17.6943 14.12061027379880
HELIOS 1B               
1 25977U 99064A   26188.75522513  .00001218  00000+0  13889-3 0  9996
2 25977  98.1595  94.4889 0002259  63.0622 297.0824 14.88062439703117
TERRA                   
1 25994U 99068A   26188.77860100  .00000307  00000+0  71539-4 0  9993
2 25994  97.9444 237.5073 0003059 137.6111 341.4830 14.61119717412617
SL-16 R/B               
1 26070U 00006B   26188.05930359 -.00000204  00000+0 -79334-4 0  9997
2 26070  71.0005 206.8406 0016834 351.6066   8.4772 14.15840447365454
TITAN 4B R/B            
1 26474U 00047B   26188.78955850  .00001841  00000+0  11782-3 0  9991
2 26474  67.9887  62.5777 0046026 266.0848  93.5039 15.10310374411040
ENVISAT                 
1 27386U 02009A   26188.82850764  .00000066  00000+0  35380-4 0  9996
2 27386  98.3843 139.6876 0001357  84.1610 329.5017 14.39069661276455
IDEFIX & ARIANE 42P R/B 
1 27422U 02021B   26188.75507808  .00000158  00000+0  76610-4 0  9994
2 27422  98.5942 126.0156 0011421 188.4015 171.6979 14.31091542261192
AQUA                    
1 27424U 02022A   26188.85639772  .00000637  00000+0  13641-3 0  9990
2 27424  98.4289 158.5539 0000730  97.9676 317.7927 14.62189857286295
CZ-4B R/B               
1 27432U 02024C   26188.76267703  .00000014  00000+0  29876-4 0  9999
2 27432  98.8689 241.4481 0050834  42.8954  68.6613 14.14567554246211
MIDORI II (ADEOS-II)    
1 27597U 02056A   26188.78845552  .00000194  00000+0  93848-4 0  9991
2 27597  98.7889 148.2245 0001777  49.7772 310.3565 14.29360532227453
H-2A R/B                
1 27601U 02056E   26188.73826167  .00000179  00000+0  77104-4 0  9993
2 27601  98.3323 144.6648 0070419 162.9769 261.6247 14.33831205231318
CZ-4B R/B               
1 28059U 03049C   26188.72279826  .00000207  00000+0  59047-4 0  9995
2 28059  98.6905 188.3876 0047238 224.3859 135.3547 14.55112800204057
CZ-2C R/B               
1 28222U 04012C   26188.72912644  .00098038  00000+0  44343-3 0  9991
2 28222  97.7054 266.8508 0011047 214.7017 145.3532 15.83611482223144
SL-16 R/B               
1 28353U 04021B   26188.73848422  .00000265  00000+0  16285-3 0  9998
2 28353  71.0021 340.5571 0006505 231.4528 128.6012 14.14614036139812
CZ-4B R/B               
1 28415U 04035C   26188.07017770  .00005280  00000+0  17717-3 0  9996
2 28415  97.3361 220.9219 0028859 263.1254  96.6704 15.30915636198167
CZ-2C R/B               
1 28480U 04046B   26188.73582069  .00000085  00000+0  46394-4 0  9993
2 28480  98.1927  96.2307 0139702 159.3593 201.3310 14.27031625125621
ARIANE 5 R/B            
1 28499U 04049H   26188.47277070  .00000464  00000+0  57765-4 0  9995
2 28499  98.2736   1.5113 0083033 323.6113  35.9473 14.85472992163570
CZ-2D R/B               
1 28738U 05024B   26188.03305232  .00051770  00000+0  39702-3 0  9995
2 28738  97.3477 208.4827 0000991 228.1817 131.9362 15.71950618158457
ALOS (DAICHI)           
1 28931U 06002A   26188.78221437  .00000886  00000+0  15573-3 0  9995
2 28931  98.1332 144.2868 0000785  77.1305 282.9988 14.70092413 91127
H-2A R/B                
1 28932U 06002B   26188.42043475  .00005562  00000+0  26593-3 0  9991
2 28932  98.2587 346.0860 0050268 192.4480 167.5515 15.18361756112592
